NORAD_CAT_ID,OBJECT_NAME,OBJECT_TYPE,EPOCH,MEAN_MOTION,ECCENTRICITY,INCLINATION,RA_OF_ASC_NODE,ARG_OF_PERICENTER,MEAN_ANOMALY,BSTAR,MEAN_MOTION_DOT,MEAN_MOTION_DDOT,TLE_LINE0,TLE_LINE1,TLE_LINE2,SEMIMAJOR_AXIS,PERIOD,APOGEE,PERIGEE,DECAYED
53733.0,STARLINK-4574,PAYLOAD,2022-10-24 14:00:01,15.55880616,0.0001455,53.2171,28.6878,51.52,126.8804,-0.018848,-0.01193509,0.0,0 STARLINK-4574,1 53733U 22107AK  22297.58334491 -.01193509  00000-0 -18848-1 0  9992,2 53733  53.2171  28.6878 0001455  51.5200 126.8804 15.55880616  7897,6777.731,92.552,400.582,398.61,0.0
53733.0,STARLINK-4574,PAYLOAD,2022-10-24 22:00:00,15.55022619,0.0001426999999999,53.217,27.0804,49.5826,196.4038,-0.018403,-0.01134947,0.0,0 STARLINK-4574,1 53733U 22107AK  22297.91667824 -.01134947  00000-0 -18403-1 0  9996,2 53733  53.2170  27.0804 0001427  49.5826 196.4038 15.55022619  1301,6780.224,92.603,403.056,401.121,0.0
53733.0,STARLINK-4574,PAYLOAD,2022-10-25 06:00:00,15.54227356,0.0001337,53.2169,25.475,44.306,268.2568,-0.019363,-0.01157132,0.0,0 STARLINK-4574,1 53733U 22107AK  22298.25001157 -.01157132  00000-0 -19363-1 0  9992,2 53733  53.2169  25.4750 0001337  44.3060 268.2568 15.54227356  7995,6782.5369999999975,92.651,405.3080000000001,403.495,0.0
53733.0,STARLINK-4574,PAYLOAD,2022-10-25 14:00:01,15.53396701,0.0001293,53.2174,23.8744,49.2065,328.9726,-0.019569,-0.01136503,0.0,0 STARLINK-4574,1 53733U 22107AK  22298.58334491 -.01136503  00000-0 -19569-1 0  9995,2 53733  53.2174  23.8744 0001293  49.2065 328.9726 15.53396701  1305,6784.954000000002,92.7,407.697,405.942,0.0
53733.0,STARLINK-4574,PAYLOAD,2022-10-25 22:00:01,15.52588925,0.00016,53.2171,22.2729,39.3958,43.4757,-0.020295,-0.01143761,0.0,0 STARLINK-4574,1 53733U 22107AK  22298.91668981 -.01143761  00000-0 -20295-1 0  9998,2 53733  53.2171  22.2729 0001600  39.3958  43.4757 15.52588925  1304,6787.307,92.748,410.258,408.086,0.0
53733.0,STARLINK-4574,PAYLOAD,2022-10-26 14:00:01,15.50890848,0.0001799,53.2177,19.0787,42.5335,166.6158,-0.018269,-0.00983067,0.0,0 STARLINK-4574,1 53733U 22107AK  22299.58334491 -.00983067  00000-0 -18269-1 0  9996,2 53733  53.2177  19.0787 0001799  42.5335 166.6158 15.50890848  1303,6792.261,92.85,415.348,412.904,0.0
53733.0,STARLINK-4574,PAYLOAD,2022-10-26 22:00:00,15.50189047,0.0001416999999999,53.2175,17.4827,56.7872,214.0515,-0.0193,-0.01010127,0.0,0 STARLINK-4574,1 53733U 22107AK  22299.91667824 -.01010127  00000-0 -19300-1 0  9998,2 53733  53.2175  17.4827 0001417  56.7872 214.0515 15.50189047  1305,6794.311,92.892,417.138,415.213,0.0
53733.0,STARLINK-4574,PAYLOAD,2022-10-27 08:00:01,15.49278306,0.0001791,53.2171,15.4918,35.2535,41.5048,-0.022179,-0.01113058,0.0,0 STARLINK-4574,1 53733U 22107AK  22300.33334491 -.01113058  00000-0 -22179-1 0  9993,2 53733  53.2171  15.4918 0001791  35.2535  41.5048 15.49278306  8321,6796.973000000001,92.947,420.055,417.621,0.0
53733.0,STARLINK-4574,PAYLOAD,2022-10-27 14:00:01,15.48715524,0.0001496999999999,53.2172,14.3004,39.9898,351.675,-0.024035,-0.01193379,0.0,0 STARLINK-4574,1 53733U 22107AK  22300.58335648 -.01193379  00000-0 -24035-1 0  9992,2 53733  53.2172  14.3004 0001497  39.9898 351.6750 15.48715524  1305,6798.62,92.98,421.502,419.467,0.0
53733.0,STARLINK-4574,PAYLOAD,2022-10-27 22:00:00,15.47865548,0.0001505,53.2175,12.7094,42.9241,47.6627,-0.02366,-0.01144586,0.0,0 STARLINK-4574,1 53733U 22107AK  22300.91667824 -.01144586  00000-0 -23660-1 0  9992,2 53733  53.2175  12.7094 0001505  42.9241  47.6627 15.47865548  1301,6801.108,93.031,423.997,421.95,0.0
53733.0,STARLINK-4574,PAYLOAD,2022-10-28 00:00:02,15.47659558,0.000168,53.2173,12.312,40.5026,154.7387,-0.023733,-0.01140298,0.0,0 STARLINK-4574,1 53733U 22107AK  22301.00002315 -.01140298  00000-0 -23733-1 0  9998,2 53733  53.2173  12.3120 0001680  40.5026 154.7387 15.47659558  8429,6801.712,93.044,424.719,422.434,0.0
53733.0,STARLINK-4574,PAYLOAD,2022-10-28 14:00:01,15.46237301,0.0001624,53.2173,9.5384,45.7049,159.9454,-0.024993,-0.01142536,0.0,0 STARLINK-4574,1 53733U 22107AK  22301.58335648 -.01142536  00000-0 -24993-1 0  9995,2 53733  53.2173   9.5384 0001624  45.7049 159.9454 15.46237301  1308,6805.882,93.129,428.852,426.642,0.0
53733.0,STARLINK-4574,PAYLOAD,2022-10-28 22:00:01,15.45427596,0.0001576999999999,53.2172,7.9536,43.051,218.6318,-0.0258699999999999,-0.01149331,0.0,0 STARLINK-4574,1 53733U 22107AK  22301.91668981 -.01149331  00000-0 -25870-1 0  9996,2 53733  53.2172   7.9536 0001577  43.0510 218.6318 15.45427596  8562,6808.259,93.178,431.198,429.05,0.0
53733.0,STARLINK-4574,PAYLOAD,2022-10-29 12:00:00,15.43999665,0.0001664,53.2174,5.1885,42.5866,224.7377,-0.026996,-0.01142653,0.0,0 STARLINK-4574,1 53733U 22107AK  22302.50001157 -.01142653  00000-0 -26996-1 0  9998,2 53733  53.2174   5.1885 0001664  42.5866 224.7377 15.43999665  1303,6812.456,93.264,435.455,433.187,0.0
53733.0,STARLINK-4574,PAYLOAD,2022-10-29 22:00:01,15.42982472,0.0001684,53.2174,3.2149,33.9709,29.9462,-0.027957,-0.01143052,0.0,0 STARLINK-4574,1 53733U 22107AK  22302.91668981 -.01143052  00000-0 -27957-1 0  9999,2 53733  53.2174   3.2149 0001684  33.9709  29.9462 15.42982472  1304,6815.45,93.326,438.462,436.167,0.0
53733.0,STARLINK-4574,PAYLOAD,2022-10-30 00:00:00,15.42776876,0.0001763,53.2174,2.8204,38.7734,128.2023,-0.028035,-0.01138709,0.0,0 STARLINK-4574,1 53733U 22107AK  22303.00001157 -.01138709  00000-0 -28035-1 0  9997,2 53733  53.2174   2.8204 0001763  38.7734 128.2023 15.42776876  8739,6816.055,93.338,439.122,436.718,0.0
53733.0,STARLINK-4574,PAYLOAD,2022-10-30 14:00:01,15.41354927,0.0001675999999999,53.2174,0.0674,50.0904,117.0267,-0.029486,-0.01141361,0.0,0 STARLINK-4574,1 53733U 22107AK  22303.58334491 -.01141361  00000-0 -29486-1 0  9999,2 53733  53.2174   0.0674 0001676  50.0904 117.0267 15.41354927  1309,6820.246,93.424,443.255,440.968,0.0
53733.0,STARLINK-4574,PAYLOAD,2022-10-30 22:00:01,15.40541666,0.0001699999999999,53.2175,358.4937,40.1155,177.2328,-0.03032,-0.01142104,0.0,0 STARLINK-4574,1 53733U 22107AK  22303.91668981 -.01142104  00000-0 -30320-1 0  9995,2 53733  53.2175 358.4937 0001700  40.1155 177.2328 15.40541666  1301,6822.647,93.474,445.671,443.352,0.0
53733.0,STARLINK-4574,PAYLOAD,2022-10-31 14:00:01,15.38921717,0.0001655,53.2172,355.3581,38.0902,276.5878,-0.032305,-0.0115227,0.0,0 STARLINK-4574,1 53733U 22107AK  22304.58334491 -.01152270  00000-0 -32305-1 0  9995,2 53733  53.2172 355.3581 0001655  38.0902 276.5878 15.38921717  1303,6827.434,93.572,450.429,448.169,0.0
53733.0,STARLINK-4574,PAYLOAD,2022-10-31 22:00:01,15.38098762,0.0001764999999999,53.2175,353.79,29.6674,332.3130000000001,-0.032811,-0.01140223,0.0,0 STARLINK-4574,1 53733U 22107AK  22304.91668981 -.01140223  00000-0 -32811-1 0  9993,2 53733  53.2175 353.7900 0001765  29.6674 332.3130 15.38098762  1304,6829.869000000002,93.622,452.939,450.528,0.0
53733.0,STARLINK-4574,PAYLOAD,2022-11-01 14:00:01,15.36474736,0.0001612,53.2171,350.666,43.0089,50.4359,-0.034717,-0.01143827,0.0,0 STARLINK-4574,1 53733U 22107AK  22305.58334491 -.01143827  00000-0 -34717-1 0  9993,2 53733  53.2171 350.6660 0001612  43.0089  50.4359 15.36474736  1308,6834.681,93.721,457.647,455.444,0.0
53733.0,STARLINK-4574,PAYLOAD,2022-11-01 22:00:00,15.35655848,0.000173,53.2175,349.1039,39.6301,98.1171,-0.035392,-0.01136307,0.0,0 STARLINK-4574,1 53733U 22107AK  22305.91667824 -.01136307  00000-0 -35392-1 0  9994,2 53733  53.2175 349.1039 0001730  39.6301  98.1171 15.35655848  9183,6837.11,93.771,460.158,457.792,0.0
53733.0,STARLINK-4574,PAYLOAD,2022-11-02 14:00:01,15.34026213,0.0001758,53.2173,345.9913,41.9294,181.4815,-0.037135,-0.01131914,0.0,0 STARLINK-4574,1 53733U 22107AK  22306.58334491 -.01131914  00000-0 -37135-1 0  9995,2 53733  53.2173 345.9913 0001758  41.9294 181.4815 15.34026213  9282,6841.951,93.871,465.019,462.614,0.0
53733.0,STARLINK-4574,PAYLOAD,2022-11-02 22:00:00,15.33214558,0.0001394,53.2175,344.435,57.1381,207.6388,-0.038242,-0.01135476,0.0,0 STARLINK-4574,1 53733U 22107AK  22306.91667824 -.01135476  00000-0 -38242-1 0  9998,2 53733  53.2175 344.4350 0001394  57.1381 207.6388 15.33214558  1306,6844.366,93.92,467.185,465.277,0.0
53733.0,STARLINK-4574,PAYLOAD,2022-11-03 06:00:02,15.32421687,0.000157,53.2169,342.8831,45.0624,260.1559,-0.040324,-0.01164788,0.0,0 STARLINK-4574,1 53733U 22107AK  22307.25002315 -.01164788  00000-0 -40324-1 0  9996,2 53733  53.2169 342.8831 0001570  45.0624 260.1559 15.32421687  9389,6846.727,93.969,469.666,467.517,0.0
53733.0,STARLINK-4574,PAYLOAD,2022-11-03 14:00:01,15.31594351,0.000156,53.2168,341.3341,44.4441,300.1252,-0.040628,-0.01145214,0.0,0 STARLINK-4574,1 53733U 22107AK  22307.58334491 -.01145214  00000-0 -40628-1 0  9995,2 53733  53.2168 341.3341 0001560  44.4441 300.1252 15.31594351  1304,6849.191999999999,94.02,472.125,469.98800000000006,0.0
53733.0,STARLINK-4574,PAYLOAD,2022-11-03 22:00:00,15.30772833,0.0001428,53.2174,339.7834,43.4842,339.522,-0.041279,-0.01134906,0.0,0 STARLINK-4574,1 53733U 22107AK  22307.91667824 -.01134906  00000-0 -41279-1 0  9990,2 53733  53.2174 339.7834 0001428  43.4842 339.5220 15.30772833  1309,6851.642,94.07,474.486,472.529,0.0
53733.0,STARLINK-4574,PAYLOAD,2022-11-04 14:00:01,15.29145628,0.0001675,53.2172,336.6939,40.5792,56.3556,-0.043393,-0.01134232,0.0,0 STARLINK-4574,1 53733U 22107AK  22308.58334491 -.01134232  00000-0 -43393-1 0  9996,2 53733  53.2172 336.6939 0001675  40.5792  56.3556 15.29145628  9594,6856.502,94.17,479.516,477.219,0.0
53733.0,STARLINK-4574,PAYLOAD,2022-11-04 22:00:01,15.28330849,0.0001804,53.2172,335.1494,40.9927,91.506,-0.044476,-0.01133725,0.0,0 STARLINK-4574,1 53733U 22107AK  22308.91668981 -.01133725  00000-0 -44476-1 0  9996,2 53733  53.2172 335.1494 0001804  40.9927  91.5060 15.28330849  1304,6858.939,94.22,482.041,479.566,0.0
